LOPEN                   
1 60473U 24149F   26132.95797550  .00009951  00000+0  26275-3 0  9999
2 60473  97.3779 216.0799 0002137  67.3836 292.7635 15.38652130 96849
ROCK                    
1 60474U 24149G   26133.20468116  .00008487  00000+0  22441-3 0  9996
2 60474  97.3774 216.3458 0002151  57.7935 302.3518 15.38660215 96884
CONNECTA IOT-3          
1 60475U 24149H   26133.17301940  .00002658  00000+0  11508-3 0  9990
2 60475  97.3738 209.8258 0003945  52.6420 307.5176 15.23271763 96477
QUBE                    
1 60476U 24149J   26133.03518274  .00013876  00000+0  29048-3 0  9998
2 60476  97.3775 218.8383 0001726  41.0047 319.1332 15.45561838 97035
WREN-1                  
1 60478U 24149L   26132.80537341  .00012774  00000+0  32034-3 0  9995
2 60478  97.3766 216.5865 0004623  47.6340 312.5297 15.40161387 96872
TOMORROW-S1             
1 60479U 24149M   26133.20243593  .00004214  00000+0  13798-3 0  9990
2 60479  97.3752 213.7989 0003166  45.2559 314.8940 15.32216142 96737
FLOCK 4BE-18            
1 60480U 24149N   26133.21635161  .00009384  00000+0  23176-3 0  9993
2 60480  97.3730 216.6126 0003825  45.6577 314.4982 15.40714322 96921
FLOCK 4BE-7             
1 60481U 24149P   26133.18516826  .00014655  00000+0  38310-3 0  9999
2 60481  97.3761 215.9971 0003171  54.8705 305.2837 15.38860094 96860
TOMORROW-S2             
1 60485U 24149T   26133.16813488  .00004923  00000+0  16072-3 0  9993
2 60485  97.3819 214.2206 0003900  60.4428 299.7202 15.32226926 96728
FLOCK 4BE-36            
1 60486U 24149U   26133.20784466  .00009069  00000+0  21755-3 0  9992
2 60486  97.3744 217.2488 0004146  56.2300 303.9341 15.41607483 96965
FLOCK 4BE-25            
1 60487U 24149V   26132.96221843  .00008757  00000+0  23722-3 0  9999
2 60487  97.3798 215.9000 0002764  62.0916 298.0609 15.37898582 96825
FLOCK 4BE-31            
1 60488U 24149W   26133.20190222  .00011116  00000+0  25645-3 0  9993
2 60488  97.3801 218.0080 0003230  66.0368 294.1217 15.42727343 96988
FLOCK 4BE-20            
1 60489U 24149X   26133.16822676  .00009402  00000+0  26087-3 0  9990
2 60489  97.3698 215.0754 0004216  54.7335 305.4304 15.37126804 96837
FLOCK 4BE-23            
1 60490U 24149Y   26133.01989242  .00009844  00000+0  27624-3 0  9997
2 60490  97.3781 215.2831 0004176  62.3550 297.8118 15.36761774 96791
FLOCK 4BE-15            
1 60491U 24149Z   26132.97432240  .00080119  00000+0  13124-2 0  9996
2 60491  97.3695 217.2390 0003776 143.4934 216.6576 15.52199251 96958
FLOCK 4BE-17            
1 60492U 24149AA  26133.18060779  .00010299  00000+0  27105-3 0  9992
2 60492  97.3776 216.3028 0003383  54.1875 305.9684 15.38739598 96874
NUSAT-50 (NANCY ROMAN)  
1 60493U 24149AB  26133.16768407  .00006123  00000+0  21854-3 0  9990
2 60493  97.3790 214.6847 0002394 349.1136  11.0052 15.29233317 96770
FLOCK 4BE-22            
1 60494U 24149AC  26132.67327898  .00009801  00000+0  24706-3 0  9996
2 60494  97.3733 215.9297 0004172  59.0790 301.0866 15.40076591 96834
FLOCK 4BE-34            
1 60495U 24149AD  26133.21061356  .00008875  00000+0  22352-3 0  9997
2 60495  97.3784 217.2704 0004462  67.0111 293.1606 15.40130600 96944
TYCHE                   
1 60496U 24149AE  26132.98546481  .00002881  00000+0  11544-3 0  9990
2 60496  97.3755 211.2742 0003752  65.1069 295.0559 15.25826123 96539
FLOCK 4BE-32            
1 60497U 24149AF  26133.19963713  .00009456  00000+0  23186-3 0  9996
2 60497  97.3723 216.7832 0004375  63.6749 296.4946 15.40930406 96942
NUSAT-48 (HENRIETTA LE*)
1 60498U 24149AG  26132.97036544  .00006272  00000+0  21961-3 0  9997
2 60498  97.3907 214.6505 0004917  56.9169 303.2543 15.29843871 96759
FLOCK 4BE-30            
1 60499U 24149AH  26132.86455042  .00062039  00000+0  11539-2 0  9996
2 60499  97.3783 217.4288 0002211 162.3743 197.7584 15.48674132 96299
NUSAT-49 (KLARA DAN VO*)
1 60500U 24149AJ  26133.21186017  .00005263  00000+0  18245-3 0  9990
2 60500  97.3781 214.7369 0003939  72.3883 287.7787 15.30245503 96789
FLOCK 4BE-11            
1 60501U 24149AK  26132.95371946  .00011491  00000+0  27340-3 0  9994
2 60501  97.3701 216.7303 0004379  62.5811 297.5881 15.41786432 96926
YAM-7                   
1 60504U 24149AN  26133.16824775  .00004950  00000+0  16617-3 0  9991
2 60504  97.3787 213.5736 0004802  71.9678 288.2086 15.31319486 96692
FLOCK 4BE-24            
1 60505U 24149AP  26133.20013368  .00011231  00000+0  26767-3 0  9992
2 60505  97.3719 217.2266 0004538  69.9518 290.2217 15.41740868 96976
LUR-1                   
1 60506U 24149AQ  26133.18511990  .00004665  00000+0  16507-3 0  9998
2 60506  97.3743 212.2793 0005594  78.0598 282.1269 15.29632656 96626
TANAGER-1               
1 60507U 24149AR  26132.98565478  .00010287  00000+0  22315-3 0  9997
2 60507  97.3207 227.1180 0006086  73.8684 286.3235 15.44568747 97607
