OBJECT_NAME,OBJECT_ID,EPOCH,MEAN_MOTION,ECCENTRICITY,INCLINATION,RA_OF_ASC_NODE,ARG_OF_PERICENTER,MEAN_ANOMALY,EPHEMERIS_TYPE,CLASSIFICATION_TYPE,NORAD_CAT_ID,ELEMENT_SET_NO,REV_AT_EPOCH,BSTAR,MEAN_MOTION_DOT,MEAN_MOTION_DDOT
LOPEN,2024-149F,2026-05-12T22:59:29.083200,15.38652130,.0002137,97.3779,216.0799,67.3836,292.7635,0,U,60473,999,9684,.26275E-3,.9951E-4,0
ROCK,2024-149G,2026-05-13T04:54:44.452224,15.38660215,.0002151,97.3774,216.3458,57.7935,302.3518,0,U,60474,999,9688,.22441E-3,.8487E-4,0
CONNECTA IOT-3,2024-149H,2026-05-13T04:09:08.876160,15.23271763,.0003945,97.3738,209.8258,52.6420,307.5176,0,U,60475,999,9647,.11508E-3,.2658E-4,0
QUBE,2024-149J,2026-05-13T00:50:39.788736,15.45561838,.0001726,97.3775,218.8383,41.0047,319.1332,0,U,60476,999,9703,.29048E-3,.13876E-3,0
WREN-1,2024-149L,2026-05-12T19:19:44.262624,15.40161387,.00046237,97.3766,216.5865,47.6340,312.5297,0,U,60478,999,9687,.32033807E-3,.12774E-3,0
TOMORROW-S1,2024-149M,2026-05-13T04:51:30.464352,15.32216142,.0003166,97.3752,213.7989,45.2559,314.8940,0,U,60479,999,9673,.13798E-3,.4214E-4,0
FLOCK 4BE-18,2024-149N,2026-05-13T05:11:32.779104,15.40714322,.0003825,97.3730,216.6126,45.6577,314.4982,0,U,60480,999,9692,.23176E-3,.9384E-4,0
FLOCK 4BE-7,2024-149P,2026-05-13T04:26:38.537664,15.38860094,.0003171,97.3761,215.9971,54.8705,305.2837,0,U,60481,999,9686,.3831E-3,.14655E-3,0
TOMORROW-S2,2024-149T,2026-05-13T04:02:06.853632,15.32226926,.00039,97.3819,214.2206,60.4428,299.7202,0,U,60485,999,9672,.16072E-3,.4923E-4,0
FLOCK 4BE-36,2024-149U,2026-05-13T04:59:17.778624,15.41607483,.0004146,97.3744,217.2488,56.2300,303.9341,0,U,60486,999,9696,.21755E-3,.9069E-4,0
FLOCK 4BE-25,2024-149V,2026-05-12T23:05:35.672352,15.37898582,.0002764,97.3798,215.9000,62.0916,298.0609,0,U,60487,999,9682,.23722E-3,.8757E-4,0
FLOCK 4BE-31,2024-149W,2026-05-13T04:50:44.351808,15.42727343,.000323,97.3801,218.0080,66.0368,294.1217,0,U,60488,999,9698,.25645E-3,.11116E-3,0
FLOCK 4BE-20,2024-149X,2026-05-13T04:02:14.792064,15.37126804,.0004216,97.3698,215.0754,54.7335,305.4304,0,U,60489,999,9683,.26087E-3,.9402E-4,0
FLOCK 4BE-23,2024-149Y,2026-05-13T00:28:38.705088,15.36761774,.0004176,97.3781,215.2831,62.3550,297.8118,0,U,60490,999,9679,.27624E-3,.9844E-4,0
FLOCK 4BE-15,2024-149Z,2026-05-12T23:23:01.455360,15.52199251,.0003776,97.3695,217.2390,143.4934,216.6576,0,U,60491,999,9695,.13124E-2,.80119E-3,0
FLOCK 4BE-17,2024-149AA,2026-05-13T04:20:04.513056,15.38739598,.0003383,97.3776,216.3028,54.1875,305.9684,0,U,60492,999,9687,.27105E-3,.10299E-3,0
NUSAT-50 (NANCY ROMAN),2024-149AB,2026-05-13T04:01:27.903648,15.29233317,.0002394,97.3790,214.6847,349.1136,11.0052,0,U,60493,999,9677,.21854E-3,.6123E-4,0
FLOCK 4BE-22,2024-149AC,2026-05-12T16:09:31.303872,15.40076591,.0004172,97.3733,215.9297,59.0790,301.0866,0,U,60494,999,9683,.24705561E-3,.9801E-4,0
FLOCK 4BE-34,2024-149AD,2026-05-13T05:03:17.011584,15.40130600,.0004462,97.3784,217.2704,67.0111,293.1606,0,U,60495,999,9694,.22352E-3,.8875E-4,0
TYCHE,2024-149AE,2026-05-12T23:39:04.159584,15.25826123,.0003752,97.3755,211.2742,65.1069,295.0559,0,U,60496,999,9653,.11544E-3,.2881E-4,0
FLOCK 4BE-32,2024-149AF,2026-05-13T04:47:28.648032,15.40930406,.0004375,97.3723,216.7832,63.6749,296.4946,0,U,60497,999,9694,.23186E-3,.9456E-4,0
NUSAT-48 (HENRIETTA LEAVITT),2024-149AG,2026-05-12T23:17:19.574016,15.29843871,.0004917,97.3907,214.6505,56.9169,303.2543,0,U,60498,999,9675,.21961E-3,.6272E-4,0
FLOCK 4BE-30,2024-149AH,2026-05-12T20:44:57.156288,15.48674132,.00022114,97.3783,217.4288,162.3743,197.7584,0,U,60499,999,9629,.11538685E-2,.62039E-3,0
NUSAT-49 (KLARA DAN VON NEUMANN),2024-149AJ,2026-05-13T05:05:04.718688,15.30245503,.0003939,97.3781,214.7369,72.3883,287.7787,0,U,60500,999,9678,.18245E-3,.5263E-4,0
FLOCK 4BE-11,2024-149AK,2026-05-12T22:53:21.361344,15.41786432,.0004379,97.3701,216.7303,62.5811,297.5881,0,U,60501,999,9692,.2734E-3,.11491E-3,0
YAM-7,2024-149AN,2026-05-13T04:02:16.605600,15.31319486,.0004802,97.3787,213.5736,71.9678,288.2086,0,U,60504,999,9669,.16617E-3,.495E-4,0
FLOCK 4BE-24,2024-149AP,2026-05-13T04:48:11.549952,15.41740868,.0004538,97.3719,217.2266,69.9518,290.2217,0,U,60505,999,9697,.26767E-3,.11231E-3,0
LUR-1,2024-149AQ,2026-05-13T04:26:34.359360,15.29632656,.0005594,97.3743,212.2793,78.0598,282.1269,0,U,60506,999,9662,.16507E-3,.4665E-4,0
TANAGER-1,2024-149AR,2026-05-12T23:39:20.572992,15.44568747,.0006086,97.3207,227.1180,73.8684,286.3235,0,U,60507,999,9760,.22315E-3,.10287E-3,0
